{
  "norad_id": 55439,
  "name": "STARLINK-5634",
  "history": [
    {
      "epoch": "2026-03-28T21:28:32.740032Z",
      "apogee_km": 574.2146295868315,
      "perigee_km": 569.8877204365963,
      "latitude_deg": 6.42724817979648e-05,
      "longitude_deg": -92.33660762864676,
      "height_km": 574.4815748118328,
      "semi_major_axis_km": 6950.188175011714,
      "eccentricity": 0.00031128,
      "inclination_deg": 70.0004,
      "raan_deg": 56.1085,
      "arg_perigee_deg": 269.9256,
      "mean_anomaly_deg": 90.1547,
      "mean_motion_rev_day": 14.98331525
    },
    {
      "epoch": "2026-03-29T03:53:04.928640Z",
      "apogee_km": 574.2147779926208,
      "perigee_km": 569.8834220150984,
      "latitude_deg": 4.03732524235347e-06,
      "longitude_deg": 170.59284554325035,
      "height_km": 574.4857575170611,
      "semi_major_axis_km": 6950.186100003859,
      "eccentricity": 0.0003116,
      "inclination_deg": 70.0003,
      "raan_deg": 55.4353,
      "arg_perigee_deg": 269.7602,
      "mean_anomaly_deg": 90.32,
      "mean_motion_rev_day": 14.98332196
    },
    {
      "epoch": "2026-03-30T03:55:05.662272Z",
      "apogee_km": 574.2361607285393,
      "perigee_km": 569.858934500452,
      "latitude_deg": -1.7324886954476145e-05,
      "longitude_deg": 166.5778593280064,
      "height_km": 574.4899662242249,
      "semi_major_axis_km": 6950.184547614495,
      "eccentricity": 0.0003149,
      "inclination_deg": 70.0004,
      "raan_deg": 52.9104,
      "arg_perigee_deg": 269.613,
      "mean_anomaly_deg": 90.4668,
      "mean_motion_rev_day": 14.98332698
    },
    {
      "epoch": "2026-03-30T05:31:13.779840Z",
      "apogee_km": 574.2099706877007,
      "perigee_km": 569.9065487867756,
      "latitude_deg": 7.002046116445497e-05,
      "longitude_deg": 142.31006555222376,
      "height_km": 574.4945667766942,
      "semi_major_axis_km": 6950.195259737237,
      "eccentricity": 0.00030959,
      "inclination_deg": 70.0004,
      "raan_deg": 52.7422,
      "arg_perigee_deg": 269.7674,
      "mean_anomaly_deg": 90.3131,
      "mean_motion_rev_day": 14.98329234
    },
    {
      "epoch": "2026-03-30T07:07:21.790272Z",
      "apogee_km": 574.2306221883637,
      "perigee_km": 569.8882784501329,
      "latitude_deg": -4.396461311388968e-06,
      "longitude_deg": 118.04246084481659,
      "height_km": 574.4819072295319,
      "semi_major_axis_km": 6950.1964503192485,
      "eccentricity": 0.00031239,
      "inclination_deg": 70.0005,
      "raan_deg": 52.5738,
      "arg_perigee_deg": 270.136,
      "mean_anomaly_deg": 89.9441,
      "mean_motion_rev_day": 14.98328849
    },
    {
      "epoch": "2026-03-31T21:34:35.430816Z",
      "apogee_km": 574.1760395922875,
      "perigee_km": 569.9183567524869,
      "latitude_deg": -3.0113259789711833e-06,
      "longitude_deg": -104.38321317892739,
      "height_km": 574.4632929038205,
      "semi_major_axis_km": 6950.1841981723865,
      "eccentricity": 0.0003063,
      "inclination_deg": 70.0008,
      "raan_deg": 48.5342,
      "arg_perigee_deg": 270.309,
      "mean_anomaly_deg": 89.7718,
      "mean_motion_rev_day": 14.98332811
    },
    {
      "epoch": "2026-04-01T07:11:23.744832Z",
      "apogee_km": 574.1768880249929,
      "perigee_km": 569.9247631133094,
      "latitude_deg": -4.774153113358124e-05,
      "longitude_deg": 110.01065358809558,
      "height_km": 574.4547350347729,
      "semi_major_axis_km": 6950.187825569151,
      "eccentricity": 0.0003059,
      "inclination_deg": 70.001,
      "raan_deg": 47.5242,
      "arg_perigee_deg": 270.6381,
      "mean_anomaly_deg": 89.4427,
      "mean_motion_rev_day": 14.98331638
    },
    {
      "epoch": "2026-04-02T20:02:29.092416Z",
      "apogee_km": 574.1226653174144,
      "perigee_km": 569.9761840964338,
      "latitude_deg": -2.0643572493033555e-05,
      "longitude_deg": -88.14635348593117,
      "height_km": 574.453602536779,
      "semi_major_axis_km": 6950.186424706923,
      "eccentricity": 0.0002983,
      "inclination_deg": 70.0016,
      "raan_deg": 43.6529,
      "arg_perigee_deg": 270.646,
      "mean_anomaly_deg": 89.4357,
      "mean_motion_rev_day": 14.98332091
    },
    {
      "epoch": "2026-04-02T21:38:37.088160Z",
      "apogee_km": 574.1218925268686,
      "perigee_km": 569.9717987489612,
      "latitude_deg": 8.498964937458962e-06,
      "longitude_deg": -112.41375937112032,
      "height_km": 574.459465054787,
      "semi_major_axis_km": 6950.183845637915,
      "eccentricity": 0.00029856,
      "inclination_deg": 70.0016,
      "raan_deg": 43.4846,
      "arg_perigee_deg": 270.4124,
      "mean_anomaly_deg": 89.6693,
      "mean_motion_rev_day": 14.98332925
    },
    {
      "epoch": "2026-04-03T20:04:30.131040Z",
      "apogee_km": 574.0201546535154,
      "perigee_km": 570.0919055529012,
      "latitude_deg": 6.460985879337476e-05,
      "longitude_deg": -92.16207595245791,
      "height_km": 574.5353405961836,
      "semi_major_axis_km": 6950.193030103208,
      "eccentricity": 0.0002826,
      "inclination_deg": 70.0015,
      "raan_deg": 41.1285,
      "arg_perigee_deg": 268.4852,
      "mean_anomaly_deg": 91.5984,
      "mean_motion_rev_day": 14.98329955
    },
    {
      "epoch": "2026-04-04T05:41:19.004928Z",
      "apogee_km": 574.0039518886524,
      "perigee_km": 570.1397747648207,
      "latitude_deg": -7.890409042243255e-05,
      "longitude_deg": 122.22961512390832,
      "height_km": 574.5888822216003,
      "semi_major_axis_km": 6950.208863326736,
      "eccentricity": 0.00027799,
      "inclination_deg": 70.0013,
      "raan_deg": 40.1187,
      "arg_perigee_deg": 267.3396,
      "mean_anomaly_deg": 92.7444,
      "mean_motion_rev_day": 14.98324835
    },
    {
      "epoch": "2026-04-05T05:43:19.754112Z",
      "apogee_km": 573.9911266301588,
      "perigee_km": 570.1240383644572,
      "latitude_deg": 4.087037039949025e-05,
      "longitude_deg": 118.21461325043548,
      "height_km": 574.5711408920629,
      "semi_major_axis_km": 6950.194582497308,
      "eccentricity": 0.0002782,
      "inclination_deg": 70.0011,
      "raan_deg": 37.5938,
      "arg_perigee_deg": 267.4437,
      "mean_anomaly_deg": 92.6404,
      "mean_motion_rev_day": 14.98329453
    },
    {
      "epoch": "2026-04-06T02:33:04.283712Z",
      "apogee_km": 574.1211830127131,
      "perigee_km": 569.9913781653859,
      "latitude_deg": -2.5387865379755823e-05,
      "longitude_deg": 162.73492952692658,
      "height_km": 574.6131770211173,
      "semi_major_axis_km": 6950.193280589049,
      "eccentricity": 0.0002971,
      "inclination_deg": 70.0006,
      "raan_deg": 35.4051,
      "arg_perigee_deg": 266.4068,
      "mean_anomaly_deg": 93.6751,
      "mean_motion_rev_day": 14.98329874
    },
    {
      "epoch": "2026-04-07T05:47:21.350976Z",
      "apogee_km": 574.045995114052,
      "perigee_km": 570.0567259988593,
      "latitude_deg": 3.983954495800478e-06,
      "longitude_deg": 110.18329567350229,
      "height_km": 574.6151144035758,
      "semi_major_axis_km": 6950.188360556455,
      "eccentricity": 0.00028699,
      "inclination_deg": 70.0008,
      "raan_deg": 32.5432,
      "arg_perigee_deg": 266.0801,
      "mean_anomaly_deg": 94.003,
      "mean_motion_rev_day": 14.98331465
    },
    {
      "epoch": "2026-04-07T18:36:25.977888Z",
      "apogee_km": 573.9730897650779,
      "perigee_km": 570.1282459472204,
      "latitude_deg": -1.723296894965993e-05,
      "longitude_deg": -83.95850695230074,
      "height_km": 574.5279430047134,
      "semi_major_axis_km": 6950.187667856148,
      "eccentricity": 0.0002766,
      "inclination_deg": 70.0009,
      "raan_deg": 31.1971,
      "arg_perigee_deg": 268.5102,
      "mean_anomaly_deg": 91.574,
      "mean_motion_rev_day": 14.98331689
    },
    {
      "epoch": "2026-04-08T12:13:54.660288Z",
      "apogee_km": 574.0193879956687,
      "perigee_km": 570.0896107181024,
      "latitude_deg": -1.4054196131873581e-05,
      "longitude_deg": 9.09676396701566,
      "height_km": 574.524843847717,
      "semi_major_axis_km": 6950.191499356885,
      "eccentricity": 0.00028271,
      "inclination_deg": 70.0009,
      "raan_deg": 29.3457,
      "arg_perigee_deg": 268.7463,
      "mean_anomaly_deg": 91.3372,
      "mean_motion_rev_day": 14.9833045
    },
    {
      "epoch": "2026-04-09T04:15:15.028992Z",
      "apogee_km": 574.0300691969587,
      "perigee_km": 570.0649889231308,
      "latitude_deg": -2.278054421342483e-05,
      "longitude_deg": 126.42067568718207,
      "height_km": 574.5184478590754,
      "semi_major_axis_km": 6950.184529060045,
      "eccentricity": 0.00028525,
      "inclination_deg": 70.0009,
      "raan_deg": 27.6625,
      "arg_perigee_deg": 268.7417,
      "mean_anomaly_deg": 91.3415,
      "mean_motion_rev_day": 14.98332704
    },
    {
      "epoch": "2026-04-10T04:17:16.088352Z",
      "apogee_km": 574.0138603283476,
      "perigee_km": 570.0974267737056,
      "latitude_deg": -2.062694518116809e-05,
      "longitude_deg": 122.40443363423753,
      "height_km": 574.5173227470943,
      "semi_major_axis_km": 6950.192643551026,
      "eccentricity": 0.00028175,
      "inclination_deg": 70.0008,
      "raan_deg": 25.1377,
      "arg_perigee_deg": 268.9951,
      "mean_anomaly_deg": 91.0885,
      "mean_motion_rev_day": 14.9833008
    },
    {
      "epoch": "2026-04-11T20:20:37.728096Z",
      "apogee_km": 574.0504051536554,
      "perigee_km": 570.0707220287441,
      "latitude_deg": 4.75079777033875e-06,
      "longitude_deg": -124.28906797784532,
      "height_km": 574.4979051689612,
      "semi_major_axis_km": 6950.1975635911995,
      "eccentricity": 0.0002863,
      "inclination_deg": 70.0005,
      "raan_deg": 20.9294,
      "arg_perigee_deg": 269.7124,
      "mean_anomaly_deg": 90.3707,
      "mean_motion_rev_day": 14.98328489
    }
  ]
}